Bristol / Lulsgate , United Kingdom (EGGD) 51-23N 002-43W
Jan 18, 2024 - 12:50 PM EST / 2024.01.18 1750 UTC
Wind: from the NW (310 degrees) at 3 MPH (3 KT):0
Visibility: greater than 7 mile(s):0
Temperature: 32 F (0 C)
Dew Point: 23 F (-5 C)
Relative Humidity: 69%
Pressure (altimeter): 29.94 in. Hg (1014 hPa)
ob: EGGD 181750Z AUTO 31003KT 9999 NCD M00/M05 Q1014
cycle: 18
