London City Airport, United Kingdom (EGLC) 51-30N 000-30W
Dec 06, 2023 - 08:20 PM EST / 2023.12.07 0120 UTC
Wind: from the E (090 degrees) at 6 MPH (5 KT):0
Visibility: greater than 7 mile(s):0
Temperature: 41 F (5 C)
Dew Point: 37 F (3 C)
Relative Humidity: 86%
Pressure (altimeter): 29.97 in. Hg (1015 hPa)
ob: EGLC 070120Z AUTO 09005KT 9999 NCD 05/03 Q1015
cycle: 1
