London City Airport, United Kingdom (EGLC) 51-30N 000-30W
Dec 12, 2023 - 03:50 PM EST / 2023.12.12 2050 UTC
Wind: from the WSW (240 degrees) at 10 MPH (9 KT):0
Visibility: greater than 7 mile(s):0
Weather: Towering cumulus clouds observed
Temperature: 48 F (9 C)
Dew Point: 44 F (7 C)
Relative Humidity: 87%
Pressure (altimeter): 29.35 in. Hg (0994 hPa)
ob: EGLC 122050Z AUTO 24009KT 9999 //////TCU 09/07 Q0994
cycle: 21
