London City Airport, United Kingdom (EGLC) 51-30N 000-30W
Jan 18, 2024 - 12:50 PM EST / 2024.01.18 1750 UTC
Wind: from the WNW (290 degrees) at 6 MPH (5 KT):0
Visibility: greater than 7 mile(s):0
Temperature: 35 F (2 C)
Windchill: 30 F (-1 C):1
Dew Point: 26 F (-3 C)
Relative Humidity: 69%
Pressure (altimeter): 29.91 in. Hg (1013 hPa)
ob: EGLC 181750Z AUTO 29005KT 9999 NCD 02/M03 Q1013
cycle: 18
