Rotterdam Airport Zestienhoven, Netherlands (EHRD) 51-57N 004-27E -4M
Jan 18, 2024 - 12:55 PM EST / 2024.01.18 1755 UTC
Wind: from the W (270 degrees) at 3 MPH (3 KT):0
Visibility: greater than 7 mile(s):0
Temperature: 30 F (-1 C)
Dew Point: 26 F (-3 C)
Relative Humidity: 86%
Pressure (altimeter): 29.80 in. Hg (1009 hPa)
ob: EHRD 181755Z AUTO 27003KT 9999 NCD M01/M03 Q1009 NOSIG
cycle: 18
