Station name not available
Jan 18, 2024 - 12:50 PM EST / 2024.01.18 1750 UTC
Wind: from the N (350 degrees) at 32 MPH (28 KT):0
Sky conditions: overcast
Temperature: 28 F (-2 C)
Windchill: 12 F (-11 C):1
Dew Point: 28 F (-2 C)
Relative Humidity: 100%
Pressure (altimeter): 29.26 in. Hg (0991 hPa)
ob: ENQA 181750Z AUTO 35028KT //// BKN007/// OVC031/// M02/M02 Q0991 W00/S5
cycle: 18
