SEATTLE BOEING FIELD, WA, United States (KBFI) 47-33N 122-19W 4M
Aug 24, 2023 - 11:53 PM EDT / 2023.08.25 0353 UTC
Wind: Variable at 5 MPH (4 KT):0
Visibility: 10 mile(s):0
Sky conditions: clear
Weather: smoke
Temperature: 66.9 F (19.4 C)
Dew Point: 52.0 F (11.1 C)
Relative Humidity: 58%
Pressure (altimeter): 29.94 in. Hg (1013 hPa)
ob: KBFI 250353Z VRB04KT 10SM FU CLR 19/11 A2994 RMK AO2 SLP137 T01940111
cycle: 4
