SEATTLE BOEING FIELD, WA, United States (KBFI) 47-33N 122-19W 4M
Dec 06, 2023 - 07:55 PM EST / 2023.12.07 0055 UTC
Wind: from the NNW (330 degrees) at 6 MPH (5 KT):0
Visibility: 2 mile(s):0
Sky conditions: overcast
Weather: mist
Temperature: 48.9 F (9.4 C)
Dew Point: 46.9 F (8.3 C)
Relative Humidity: 92%
Pressure (altimeter): 29.71 in. Hg (1006 hPa)
ob: KBFI 070055Z 33005KT 2SM BR OVC006 09/08 A2971 RMK AO2 T00940083
cycle: 1
