NEW YORK CITY CENTRAL PARK, NY, United States (KNYC) 40-47N 073-58W 48M
Dec 12, 2023 - 03:51 PM EST / 2023.12.12 2051 UTC
Wind: Calm:0
Visibility: 10 mile(s):0
Sky conditions: clear
Temperature: 43.0 F (6.1 C)
Dew Point: 21.9 F (-5.6 C)
Relative Humidity: 42%
Pressure (altimeter): 30.38 in. Hg (1028 hPa)
Pressure tendency: 0.01 inches (0.5 hPa) lower than three hours ago
ob: KNYC 122051Z AUTO 00000KT 10SM CLR 06/M06 A3038 RMK AO2 SLP279 T00611056 55005 
cycle: 21
