EVERETT SNOHOMISH COUNTY, WA, United States (KPAE) 47-55N 122-17W 180M
Dec 12, 2023 - 03:53 PM EST / 2023.12.12 2053 UTC
Wind: Calm:0
Visibility: 10 mile(s):0
Sky conditions: clear
Temperature: 48.0 F (8.9 C)
Dew Point: 36.0 F (2.2 C)
Relative Humidity: 62%
Pressure (altimeter): 30.21 in. Hg (1023 hPa)
Pressure tendency: 0.04 inches (1.4 hPa) lower than three hours ago
ob: KPAE 122053Z 00000KT 10SM CLR 09/02 A3021 RMK AO2 SLP231 T00890022 58014
cycle: 21
