SAN FRANCISCO INTERNATIONAL  AIRPORT , CA, United States (KSFO) 37-37N 122-22W 26M
Dec 12, 2023 - 03:56 PM EST / 2023.12.12 2056 UTC
Wind: Calm:0
Visibility: 10 mile(s):0
Sky conditions: mostly clear
Temperature: 59.0 F (15.0 C)
Dew Point: 50.0 F (10.0 C)
Relative Humidity: 72%
Pressure (altimeter): 29.98 in. Hg (1015 hPa)
Pressure tendency: 0.05 inches (1.8 hPa) lower than three hours ago
ob: KSFO 122056Z 00000KT 10SM FEW010 15/10 A2998 RMK AO2 SLP151 T01500100 58018 
cycle: 21
