SAN FRANCISCO INTERNATIONAL  AIRPORT , CA, United States (KSFO) 37-37N 122-22W 26M
Dec 06, 2023 - 08:05 PM EST / 2023.12.07 0105 UTC
Wind: from the W (280 degrees) at 13 MPH (11 KT):0
Visibility: 10 mile(s):0
Sky conditions: mostly cloudy
Temperature: 59.0 F (15.0 C)
Dew Point: 53.1 F (11.7 C)
Relative Humidity: 80%
Pressure (altimeter): 30.04 in. Hg (1017 hPa)
ob: KSFO 070105Z 28011KT 10SM FEW007 BKN026 BKN055 15/12 A3004 RMK AO2 T01500117 
cycle: 1
