Barcelona / Aeropuerto, Spain (LEBL) 41-17N 002-04E 6M
Jan 18, 2024 - 01:00 PM EST / 2024.01.18 1800 UTC
Wind: from the SW (220 degrees) at 13 MPH (11 KT):0
Visibility: greater than 7 mile(s):0
Temperature: 59 F (15 C)
Dew Point: 53 F (12 C)
Relative Humidity: 82%
Pressure (altimeter): 29.71 in. Hg (1006 hPa)
ob: LEBL 181800Z 22011KT CAVOK 15/12 Q1006 NOSIG
cycle: 18
