Milano / Malpensa, Italy (LIMC) 45-37N 008-44E 211M
Jan 18, 2024 - 12:50 PM EST / 2024.01.18 1750 UTC
Wind: from the SSW (210 degrees) at 7 MPH (6 KT) (direction variable):0
Visibility: less than 1 mile:0
Sky conditions: mostly cloudy
Weather: fog
Temperature: 39 F (4 C)
Dew Point: 37 F (3 C)
Relative Humidity: 93%
Pressure (altimeter): 29.47 in. Hg (0998 hPa)
ob: LIMC 181750Z 21006KT 180V240 0200 R35R/0450N R17L/0375N R35L/0400N FG BKN001 04/03 Q0998 NOSIG
cycle: 18
