Ushuaia Aerodrome, Argentina (SAWH) 54-48S 068-19W 14M
Dec 12, 2023 - 03:00 PM EST / 2023.12.12 2000 UTC
Wind: from the NW (310 degrees) at 15 MPH (13 KT):0
Visibility: greater than 7 mile(s):0
Temperature: 55 F (13 C)
Dew Point: 32 F (0 C)
Relative Humidity: 40%
Pressure (altimeter): 29.18 in. Hg (0988 hPa)
ob: SAWH 122000Z 31013KT CAVOK 13/00 Q0988 RMK PP000
cycle: 20
