Bombay / Santacruz, India (VABB) 19-07N 072-51E 14M
Dec 12, 2023 - 04:00 PM EST / 2023.12.12 2100 UTC
Wind: from the E (080 degrees) at 6 MPH (5 KT):0
Visibility: 1 mile(s):0
Weather: smoke
Temperature: 78 F (26 C)
Dew Point: 59 F (15 C)
Relative Humidity: 50%
Pressure (altimeter): 29.85 in. Hg (1011 hPa)
ob: VABB 122100Z 08005KT 2500 FU NSC 26/15 Q1011 NOSIG
cycle: 21
