Bombay / Santacruz, India (VABB) 19-07N 072-51E 14M
Jan 18, 2024 - 01:00 PM EST / 2024.01.18 1800 UTC
Wind: from the E (100 degrees) at 5 MPH (4 KT):0
Visibility: 1 mile(s):0
Weather: smoke
Temperature: 73 F (23 C)
Dew Point: 55 F (13 C)
Relative Humidity: 53%
Pressure (altimeter): 29.94 in. Hg (1014 hPa)
ob: VABB 181800Z 10004KT 3000 FU NSC 23/13 Q1014 NOSIG
cycle: 18
