Shantou, China (ZGOW) 23-24N 116-41E 3M
Dec 06, 2023 - 01:00 PM EST / 2023.12.06 1800 UTC
Wind: Variable at 2 MPH (2 KT):0
Visibility: greater than 7 mile(s):0
Temperature: 57 F (14 C)
Dew Point: 51 F (11 C)
Relative Humidity: 82%
Pressure (altimeter): 30.03 in. Hg (1017 hPa)
ob: ZGOW 061800Z VRB01MPS CAVOK 14/11 Q1017 NOSIG
cycle: 18
