Shantou, China (ZGOW) 23-24N 116-41E 3M
Jan 18, 2024 - 01:00 PM EST / 2024.01.18 1800 UTC
Wind: Calm:0
Visibility: 2 mile(s):0
Weather: mist
Temperature: 59 F (15 C)
Dew Point: 57 F (14 C)
Relative Humidity: 93%
Pressure (altimeter): 30.03 in. Hg (1017 hPa)
ob: ZGOW 181800Z 00000MPS 4500 BR NSC 15/14 Q1017 NOSIG
cycle: 18
